CUBEBUG-2 (LO-74)       
1 39440U 13066AA  26160.09167476  .00003409  00000+0  31702-3 0  9992
2 39440  97.8903 109.0360 0059191  55.3304 305.3474 14.93697738675788
FUNCUBE-1 (AO-73)       
1 39444U 13066AE  26160.16786605  .00005048  00000+0  31574-3 0  9993
2 39444  97.8270 131.4468 0034829 228.8451 130.9771 15.09393647678457
UWE-3                   
1 39446U 13066AG  26160.12782108  .00003499  00000+0  30256-3 0  9999
2 39446  97.8686 116.1479 0048769 348.2293  11.7784 14.96959057676378
UNISAT-6                
1 40012U 14033C   26160.13227692  .00002442  00000+0  26550-3 0  9997
2 40012  97.7870 312.9873 0046442  95.0707 265.5813 14.88202581644966
DUCHIFAT-1              
1 40021U 14033M   26160.08702089  .00082350  00000+0  90222-3 0  9992
2 40021  98.0464 218.1182 0004324 130.2252 229.9384 15.62989578654485
QB50P1                  
1 40025U 14033R   26159.97738240  .00008544  00000+0  42192-3 0  9996
2 40025  98.0972 170.5484 0007210 248.4220 111.6244 15.18136091651780
LILACSAT-2              
1 40908U 15049K   26160.27382722  .00016042  00000+0  27593-3 0  9999
2 40908  97.4660 196.8157 0005273 283.5589  76.5075 15.51182127594527
FOX-1A (AO-85)          
1 40967U 15058D   26159.76689639  .00003039  00000+0  27655-3 0  9994
2 40967  64.7758 305.1507 0129969  59.8929 301.4993 14.90929725112319
CAS-2T & KS-1Q          
1 41847U 16066G   26160.20623799  .00001572  00000+0  22785-3 0  9997
2 41847  98.3822 236.0336 0342497 153.6291 208.2796 14.44667476503648
RADFXSAT (FOX-1B)       
1 43017U 17073E   26159.34389375  .00007664  00000+0  33533-3 0  9990
2 43017  97.4721  26.7398 0150895 359.9259   0.1924 15.12571253464059
DIWATA-2B               
1 43678U 18084H   26160.30062250  .00002189  00000+0  17912-3 0  9994
2 43678  98.1173 356.1669 0012059 196.0288 164.0555 15.00413961415035
ES'HAIL 2               
1 43700U 18090A   26160.20434111  .00000161  00000+0  00000+0 0  9999
2 43700   0.0163 288.9745 0001916 188.7115 239.2727  1.00273583 27591
FOX-1CLIFF (AO-95)      
1 43770U 18099N   26160.08109071  .00008954  00000+0  34498-3 0  9995
2 43770  97.4389 220.3580 0008826  27.1898 332.9801 15.26538897411985
ITASAT                  
1 43786U 18099AE  26160.11674282  .00005227  00000+0  25280-3 0  9996
2 43786  97.4032 211.7901 0012983  28.2656 331.9281 15.18954369411686
JY1SAT (JO-97)          
1 43803U 18099AX  26160.13509799  .00014955  00000+0  46531-3 0  9998
2 43803  97.4132 222.9432 0004209 303.3283  56.7556 15.33397143412399
UWE-4                   
1 43880U 18111E   26159.73543038  .00034399  00000+0  71406-3 0  9999
2 43880  97.5854  87.7396 0007084  15.0599 345.0859 15.45597673409471
TIANYAN 01              
1 44881U 19093C   26160.23645303  .00001486  00000+0  17365-3 0  9991
2 44881  97.7528 232.6624 0014948 110.2579 250.0246 14.86509819350234
RS-44 & BREEZE-KM R/B   
1 44909U 19096E   26160.26521816  .00000034  00000+0  88407-4 0  9994
2 44909  82.5218 344.9703 0217812 162.6407 198.2295 12.79748669301336
SALSAT                  
1 46495U 20068K   26159.90359287  .00007690  00000+0  27004-3 0  9997
2 46495  97.8856 162.4647 0008807 341.8369  18.2554 15.29680035314091
XW-3 (CAS-9)            
1 50466U 21131B   26160.27964240  .00000527  00000+0  17647-3 0  9999
2 50466  98.4971 252.7122 0005256 115.0760 245.0975 14.41350793233973
GREENCUBE (IO-117)      
1 53109U 22080E   26152.46502029 -.00000003  00000+0  00000+0 0  9996
2 53109  70.1435 303.7143 0008869 293.3663  66.6064  6.42583280 91055
UMKA 1 (RS40S)          
1 57172U 23091G   26160.19814931  .00005129  00000+0  23581-3 0  9996
2 57172  97.5054 218.9265 0013863 142.6984 217.5217 15.20724572162797
CUBESX-HSE 3 (RS42S)    
1 57178U 23091N   26160.26602961  .00012201  00000+0  40871-3 0  9998
2 57178  97.5094 225.7541 0012147 119.1074 241.1385 15.31013140163214
MONITOR-3 (RS58S)       
1 57180U 23091Q   26160.20764540  .00009443  00000+0  35093-3 0  9991
2 57180  97.5087 223.5960 0013023 125.4166 234.8291 15.27679082163073
MONITOR-4 (RS57S)       
1 57182U 23091S   26160.25265708  .00009394  00000+0  34813-3 0  9994
2 57182  97.5081 223.6120 0013024 125.6001 234.6454 15.27774077163089
MONITOR-2 (RS39S)       
1 57184U 23091U   26160.20942597  .00004147  00000+0  20208-3 0  9993
2 57184  97.5077 218.5442 0012405 135.6270 224.5961 15.18835602162742
SVYATOBOR 1 (RS60S)     
1 57187U 23091X   26160.12788131  .00008113  00000+0  31334-3 0  9998
2 57187  97.5092 223.9010 0010858 118.4882 241.7452 15.26476537163082
VIZARD-METEO (RS38S)    
1 57189U 23091Z   26160.26442527  .00015263  00000+0  44012-3 0  9992
2 57189  97.5094 229.5923 0008675 101.3179 258.9040 15.35772371163476
POLYTECH-UNIVERSE 3 (R*)
1 57191U 23091AB  26160.23768191  .00004848  00000+0  23396-3 0  9999
2 57191  97.5052 218.0768 0016374 152.3828 207.8280 15.19036374162741
UTMN 2 (RS27S)          
1 57203U 23091AP  26160.22263603  .00011389  00000+0  37223-3 0  9992
2 57203  97.5089 227.3344 0009484 107.4267 252.8012 15.31854641163327
